start=new Date('2023-01-16T00:00:00.000Z').valueOf();
sats=[{"TIME_SYSTEM":"UTC","GP_ID":"223146921","INCLINATION":"53.0493","PERIAPSIS":"545.212","OBJECT_ID":"2021-040AB","APOAPSIS":"549.026","EPOCH":"2023-01-15T18:40:07.364064","FILE":"3748322","MEAN_ANOMALY":"277.1482","NORAD_CAT_ID":"48453","REV_AT_EPOCH":"9346","RCS_SIZE":"LARGE","BSTAR":"0.00127140000000","TLE_LINE1":"1 48453U 21040AB  23015.77786301  .00018723  00000-0  12714-2 0  9999","RA_OF_ASC_NODE":"299.2973","SITE":"AFETR","MEAN_ELEMENT_THEORY":"SGP4","CENTER_NAME":"EARTH","TLE_LINE2":"2 48453  53.0493 299.2973 0002754  82.9820 277.1482 15.06430938 93460","EPHEMERIS_TYPE":"0","CLASSIFICATION_TYPE":"U","OBJECT_NAME":"STARLINK-2620","LAUNCH_DATE":"2021-05-09","MEAN_MOTION_DOT":"0.00018723","ARG_OF_PERICENTER":"82.9820","DECAY_DATE":null,"ELEMENT_SET_NO":"999","MEAN_MOTION":"15.06430938","OBJECT_TYPE":"PAYLOAD","MEAN_MOTION_DDOT":"0.0000000000000","ECCENTRICITY":"0.00027540","REF_FRAME":"TEME","SEMIMAJOR_AXIS":"6925.254","COUNTRY_CODE":"US","PERIOD":"95.590"},{"SEMIMAJOR_AXIS":"6925.341","COUNTRY_CODE":"US","PERIOD":"95.592","REF_FRAME":"TEME","MEAN_MOTION_DDOT":"0.0000000000000","OBJECT_TYPE":"PAYLOAD","ECCENTRICITY":"0.00016690","MEAN_MOTION":"15.06402446","ELEMENT_SET_NO":"999","DECAY_DATE":null,"ARG_OF_PERICENTER":"97.4873","MEAN_MOTION_DOT":"0.00001708","OBJECT_NAME":"STARLINK-2654","LAUNCH_DATE":"2021-05-09","CLASSIFICATION_TYPE":"U","EPHEMERIS_TYPE":"0","TLE_LINE2":"2 48454  53.0543 299.2983 0001669  97.4873 262.6306 15.06402446 93468","MEAN_ELEMENT_THEORY":"SGP4","CENTER_NAME":"EARTH","RA_OF_ASC_NODE":"299.2983","TLE_LINE1":"1 48454U 21040AC  23015.77417590  .00001708  00000-0  13354-3 0  9998","SITE":"AFETR","BSTAR":"0.00013354000000","RCS_SIZE":"LARGE","REV_AT_EPOCH":"9346","MEAN_ANOMALY":"262.6306","NORAD_CAT_ID":"48454","FILE":"3748322","APOAPSIS":"548.362","EPOCH":"2023-01-15T18:34:48.797760","OBJECT_ID":"2021-040AC","INCLINATION":"53.0543","PERIAPSIS":"546.050","GP_ID":"223148172","TIME_SYSTEM":"UTC"},{"SEMIMAJOR_AXIS":"6925.316","COUNTRY_CODE":"US","PERIOD":"95.591","REF_FRAME":"TEME","OBJECT_TYPE":"PAYLOAD","MEAN_MOTION_DDOT":"0.0000000000000","ECCENTRICITY":"0.00014470","ELEMENT_SET_NO":"999","MEAN_MOTION":"15.06410600","MEAN_MOTION_DOT":"0.00000914","ARG_OF_PERICENTER":"98.5584","DECAY_DATE":null,"OBJECT_NAME":"STARLINK-2582","LAUNCH_DATE":"2021-05-09","EPHEMERIS_TYPE":"0","CLASSIFICATION_TYPE":"U","TLE_LINE2":"2 48460  53.0481 305.1340 0001447  98.5584 261.5568 15.06410600 93879","TLE_LINE1":"1 48460U 21040AJ  23015.59125475  .00000914  00000-0  80233-4 0  9992","RA_OF_ASC_NODE":"305.1340","SITE":"AFETR","MEAN_ELEMENT_THEORY":"SGP4","CENTER_NAME":"EARTH","BSTAR":"0.00008023300000","RCS_SIZE":"LARGE","MEAN_ANOMALY":"261.5568","NORAD_CAT_ID":"48460","REV_AT_EPOCH":"9387","FILE":"3748322","OBJECT_ID":"2021-040AJ","APOAPSIS":"548.183","EPOCH":"2023-01-15T14:11:24.410400","INCLINATION":"53.0481","PERIAPSIS":"546.179","TIME_SYSTEM":"UTC","GP_ID":"223147922"},{"DECAY_DATE":null,"ARG_OF_PERICENTER":"50.2510","MEAN_MOTION_DOT":"0.00001356","LAUNCH_DATE":"2021-05-09","OBJECT_NAME":"STARLINK-2693","CLASSIFICATION_TYPE":"U","EPHEMERIS_TYPE":"0","TLE_LINE2":"2 48461  53.0546 303.5810 0001580  50.2510 309.8618 15.06397859 93421","COUNTRY_CODE":"US","SEMIMAJOR_AXIS":"6925.355","PERIOD":"95.592","REF_FRAME":"TEME","ECCENTRICITY":"0.00015800","OBJECT_TYPE":"PAYLOAD","MEAN_MOTION_DDOT":"0.0000000000000","MEAN_MOTION":"15.06397859","ELEMENT_SET_NO":"999","FILE":"3748322","APOAPSIS":"548.314","OBJECT_ID":"2021-040AK","EPOCH":"2023-01-15T22:30:18.976032","PERIAPSIS":"546.126","INCLINATION":"53.0546","GP_ID":"223146672","TIME_SYSTEM":"UTC","CENTER_NAME":"EARTH","MEAN_ELEMENT_THEORY":"SGP4","TLE_LINE1":"1 48461U 21040AK  23015.93771963  .00001356  00000-0  10993-3 0  9996","RA_OF_ASC_NODE":"303.5810","SITE":"AFETR","BSTAR":"0.00010993000000","RCS_SIZE":"LARGE","REV_AT_EPOCH":"9342","NORAD_CAT_ID":"48461","MEAN_ANOMALY":"309.8618"},{"PERIOD":"95.591","COUNTRY_CODE":"US","SEMIMAJOR_AXIS":"6925.283","REF_FRAME":"TEME","ECCENTRICITY":"0.00024940","OBJECT_TYPE":"PAYLOAD","MEAN_MOTION_DDOT":"0.0000000000000","ELEMENT_SET_NO":"999","MEAN_MOTION":"15.06421285","MEAN_MOTION_DOT":"0.00026198","ARG_OF_PERICENTER":"110.9816","DECAY_DATE":null,"LAUNCH_DATE":"2021-05-09","OBJECT_NAME":"STARLINK-2683","EPHEMERIS_TYPE":"0","CLASSIFICATION_TYPE":"U","TLE_LINE2":"2 48462  53.0533 309.5250 0002494 110.9816 249.1440 15.06421285 93329","SITE":"AFETR","TLE_LINE1":"1 48462U 21040AL  23015.78803291  .00026198  00000-0  17701-2 0  9994","RA_OF_ASC_NODE":"309.5250","CENTER_NAME":"EARTH","MEAN_ELEMENT_THEORY":"SGP4","BSTAR":"0.00177010000000","RCS_SIZE":"LARGE","NORAD_CAT_ID":"48462","MEAN_ANOMALY":"249.1440","REV_AT_EPOCH":"9332","FILE":"3748322","APOAPSIS":"548.875","EPOCH":"2023-01-15T18:54:46.043424","OBJECT_ID":"2021-040AL","PERIAPSIS":"545.421","INCLINATION":"53.0533","TIME_SYSTEM":"UTC","GP_ID":"223146922"},{"ECCENTRICITY":"0.00011220","MEAN_MOTION_DDOT":"0.0000000000000","OBJECT_TYPE":"PAYLOAD","ELEMENT_SET_NO":"999","MEAN_MOTION":"15.06393135","COUNTRY_CODE":"US","SEMIMAJOR_AXIS":"6925.370","PERIOD":"95.593","REF_FRAME":"TEME","EPHEMERIS_TYPE":"0","CLASSIFICATION_TYPE":"U","TLE_LINE2":"2 48463  53.0526 309.2177 0001122  59.6949 300.4151 15.06393135 93333","MEAN_MOTION_DOT":"-0.00003713","ARG_OF_PERICENTER":"59.6949","DECAY_DATE":null,"LAUNCH_DATE":"2021-05-09","OBJECT_NAME":"STARLINK-2689","RCS_SIZE":"LARGE","NORAD_CAT_ID":"48463","MEAN_ANOMALY":"300.4151","REV_AT_EPOCH":"9333","RA_OF_ASC_NODE":"309.2177","TLE_LINE1":"1 48463U 21040AM  23015.79441442 -.00003713  00000-0 -23055-3 0  9992","SITE":"AFETR","CENTER_NAME":"EARTH","MEAN_ELEMENT_THEORY":"SGP4","BSTAR":"-0.00023055000000","PERIAPSIS":"546.458","INCLINATION":"53.0526","TIME_SYSTEM":"UTC","GP_ID":"223148173","FILE":"3748322","EPOCH":"2023-01-15T19:03:57.405888","APOAPSIS":"548.012","OBJECT_ID":"2021-040AM"},{"REF_FRAME":"TEME","COUNTRY_CODE":"US","SEMIMAJOR_AXIS":"6925.341","PERIOD":"95.592","MEAN_MOTION":"15.06402335","ELEMENT_SET_NO":"999","MEAN_MOTION_DDOT":"0.0000000000000","OBJECT_TYPE":"PAYLOAD","ECCENTRICITY":"0.00018050","OBJECT_NAME":"STARLINK-2687","LAUNCH_DATE":"2021-05-09","DECAY_DATE":null,"MEAN_MOTION_DOT":"0.00001489","ARG_OF_PERICENTER":"92.4219","TLE_LINE2":"2 48466  53.0541 309.0288 0001805  92.4219 267.6977 15.06402335 93341","CLASSIFICATION_TYPE":"U","EPHEMERIS_TYPE":"0","BSTAR":"0.00011881000000","MEAN_ELEMENT_THEORY":"SGP4","CENTER_NAME":"EARTH","TLE_LINE1":"1 48466U 21040AQ  23015.83591838  .00001489  00000-0  11881-3 0  9995","RA_OF_ASC_NODE":"309.0288","SITE":"AFETR","REV_AT_EPOCH":"9334","MEAN_ANOMALY":"267.6977","NORAD_CAT_ID":"48466","RCS_SIZE":"LARGE","APOAPSIS":"548.456","OBJECT_ID":"2021-040AQ","EPOCH":"2023-01-15T20:03:43.348032","FILE":"3748322","GP_ID":"223147422","TIME_SYSTEM":"UTC","INCLINATION":"53.0541","PERIAPSIS":"545.956"},{"RCS_SIZE":"LARGE","REV_AT_EPOCH":"9333","NORAD_CAT_ID":"48467","MEAN_ANOMALY":"279.2780","CENTER_NAME":"EARTH","MEAN_ELEMENT_THEORY":"SGP4","SITE":"AFETR","TLE_LINE1":"1 48467U 21040AR  23015.79537064 -.00003377  00000-0 -20811-3 0  9995","RA_OF_ASC_NODE":"309.2117","BSTAR":"-0.00020811000000","PERIAPSIS":"546.663","INCLINATION":"53.0542","GP_ID":"223147674","TIME_SYSTEM":"UTC","FILE":"3748322","OBJECT_ID":"2021-040AR","APOAPSIS":"547.926","EPOCH":"2023-01-15T19:05:20.023296","ECCENTRICITY":"0.00009120","MEAN_MOTION_DDOT":"0.0000000000000","OBJECT_TYPE":"PAYLOAD","MEAN_MOTION":"15.06373644","ELEMENT_SET_NO":"999","PERIOD":"95.594","COUNTRY_CODE":"US","SEMIMAJOR_AXIS":"6925.429","REF_FRAME":"TEME","CLASSIFICATION_TYPE":"U","EPHEMERIS_TYPE":"0","TLE_LINE2":"2 48467  53.0542 309.2117 0000912  80.8312 279.2780 15.06373644 93339","DECAY_DATE":null,"MEAN_MOTION_DOT":"-0.00003377","ARG_OF_PERICENTER":"80.8312","LAUNCH_DATE":"2021-05-09","OBJECT_NAME":"STARLINK-2659"},{"SEMIMAJOR_AXIS":"6925.337","COUNTRY_CODE":"US","PERIOD":"95.592","REF_FRAME":"TEME","ECCENTRICITY":"0.00008570","MEAN_MOTION_DDOT":"0.0000000000000","OBJECT_TYPE":"PAYLOAD","MEAN_MOTION":"15.06403705","ELEMENT_SET_NO":"999","DECAY_DATE":null,"ARG_OF_PERICENTER":"73.0300","MEAN_MOTION_DOT":"0.00002583","LAUNCH_DATE":"2021-05-09","OBJECT_NAME":"STARLINK-2722","CLASSIFICATION_TYPE":"U","EPHEMERIS_TYPE":"0","TLE_LINE2":"2 48472  53.0545 309.0626 0000857  73.0300 287.0783 15.06403705 93321","CENTER_NAME":"EARTH","MEAN_ELEMENT_THEORY":"SGP4","TLE_LINE1":"1 48472U 21040AW  23015.82854153  .00002583  00000-0  19217-3 0  9990","SITE":"AFETR","RA_OF_ASC_NODE":"309.0626","BSTAR":"0.00019217000000","RCS_SIZE":"LARGE","REV_AT_EPOCH":"9332","NORAD_CAT_ID":"48472","MEAN_ANOMALY":"287.0783","FILE":"3748322","OBJECT_ID":"2021-040AW","APOAPSIS":"547.796","EPOCH":"2023-01-15T19:53:05.988192","PERIAPSIS":"546.609","INCLINATION":"53.0545","GP_ID":"223148423","TIME_SYSTEM":"UTC"},{"MEAN_MOTION":"15.06409526","ELEMENT_SET_NO":"999","ECCENTRICITY":"0.00023520","OBJECT_TYPE":"PAYLOAD","MEAN_MOTION_DDOT":"0.0000000000000","REF_FRAME":"TEME","COUNTRY_CODE":"US","PERIOD":"95.592","SEMIMAJOR_AXIS":"6925.319","TLE_LINE2":"2 48473  53.0534 309.1840 0002352  96.3267 263.7990 15.06409526 93329","CLASSIFICATION_TYPE":"U","EPHEMERIS_TYPE":"0","LAUNCH_DATE":"2021-05-09","OBJECT_NAME":"STARLINK-2658","DECAY_DATE":null,"MEAN_MOTION_DOT":"0.00006803","ARG_OF_PERICENTER":"96.3267","REV_AT_EPOCH":"9332","NORAD_CAT_ID":"48473","MEAN_ANOMALY":"263.7990","RCS_SIZE":"LARGE","BSTAR":"0.00047505000000","CENTER_NAME":"EARTH","MEAN_ELEMENT_THEORY":"SGP4","SITE":"AFETR","TLE_LINE1":"1 48473U 21040AX  23015.79905537  .00006803  00000-0  47505-3 0  9990","RA_OF_ASC_NODE":"309.1840","GP_ID":"223147173","TIME_SYSTEM":"UTC","PERIAPSIS":"545.556","INCLINATION":"53.0534","EPOCH":"2023-01-15T19:10:38.383968","APOAPSIS":"548.813","OBJECT_ID":"2021-040AX","FILE":"3748322"}];
